     2.11           N: GPS NAV DATA                         RINEX VERSION / TYPE
teqc  2019Feb25                         20221121 12:28:01UTCPGM / RUN BY / DATE
OSX ker:10.11.6|Core i5|gcc 4.3 -m64|OSX ker:10.10+|=+      COMMENT
    8.3819D-09  2.2352D-08 -5.9605D-08 -1.1921D-07          ION ALPHA
    8.6016D+04  6.5536D+04 -1.3107D+05 -4.5875D+05          ION BETA
    2.793967723846D-09 1.154631945610D-14   233472     1531 DELTA-UTC: A0,A1,T,W
                                                            END OF HEADER
31 09  5 11  0  0  0.0-5.990965291858D-05-9.094947017729D-13 0.000000000000D+00
    6.900000000000D+01-1.296562500000D+02 4.126600460902D-09-2.212357833310D+00
   -6.552785634995D-06 7.080006296746D-03 8.402392268181D-06 5.153713890076D+03
    8.640000000000D+04 1.303851604462D-08 2.995667350529D+00 1.545995473862D-07
    9.729186059651D-01 2.242500000000D+02-1.144427613501D+00-7.673176761469D-09
   -4.785913638228D-11 1.000000000000D+00 1.531000000000D+03 0.000000000000D+00
    2.000000000000D+00 0.000000000000D+00-1.303851604462D-08 6.900000000000D+01
    7.921800000000D+04 4.000000000000D+00
30 09  5 11  0  0  0.0 1.453668810427D-04 2.728484105319D-12 0.000000000000D+00
    8.700000000000D+01-9.593750000000D+00 4.725911138883D-09 1.674414571505D+00
   -7.748603820801D-07 1.133407966699D-02 9.367242455483D-06 5.153599357605D+03
    8.640000000000D+04-7.636845111847D-08-2.281361323811D+00-2.589076757431D-07
    9.517737416538D-01 1.931875000000D+02 1.415768526545D+00-7.888185717455D-09
    5.225217651289D-10 1.000000000000D+00 1.531000000000D+03 0.000000000000D+00
    2.000000000000D+00 0.000000000000D+00-8.381903171539D-09 8.700000000000D+01
    7.921800000000D+04 4.000000000000D+00
20 09  5 11  0  0  0.0 8.298689499497D-05-1.023181539495D-12 0.000000000000D+00
    3.400000000000D+01 1.218750000000D+02 4.665908639538D-09 2.124286286742D+00
    6.385147571564D-06 4.006661591120D-03 6.306916475296D-06 5.153618354797D+03
    8.640000000000D+04 7.636845111847D-08 8.786895947772D-01-7.264316082001D-08
    9.423504543246D-01 2.472812500000D+02 1.354420100142D+00-8.144267812873D-09
    3.064413359402D-10 1.000000000000D+00 1.531000000000D+03 0.000000000000D+00
    2.000000000000D+00 0.000000000000D+00-6.519258022308D-09 3.400000000000D+01
    7.921800000000D+04 4.000000000000D+00
29 09  5 11  0  0  0.0 1.878151670098D-05 3.865352482535D-12 0.000000000000D+00
    6.600000000000D+01-9.718750000000D+00 4.793771108380D-09-3.003099546373D+00
   -5.401670932770D-07 3.421037225053D-03 5.319714546204D-06 5.153676933289D+03
    8.640000000000D+04 1.117587089539D-08-1.166111595309D+00 1.490116119385D-08
    9.595476181070D-01 2.754375000000D+02-1.328351900606D+00-7.950331163205D-09
   -2.800116636097D-10 1.000000000000D+00 1.531000000000D+03 0.000000000000D+00
    2.000000000000D+00 0.000000000000D+00-8.847564458847D-09 6.600000000000D+01
    7.921800000000D+04 4.000000000000D+00
23 09  5 11  0  0  0.0 3.899438306689D-04 1.136868377216D-13 0.000000000000D+00
    4.900000000000D+01-2.325000000000D+01 4.568404578102D-09-4.694053566858D-01
   -1.275911927223D-06 6.041268003173D-03 6.202608346939D-07 5.153612020493D+03
    8.640000000000D+04 7.636845111847D-08 1.955942429745D+00-3.539025783539D-08
    9.702251075301D-01 3.684062500000D+02 2.877166190663D+00-8.378920444240D-09
    7.357449324439D-11 1.000000000000D+00 1.531000000000D+03 0.000000000000D+00
    2.000000000000D+00 0.000000000000D+00-2.002343535423D-08 4.900000000000D+01
    7.921800000000D+04 4.000000000000D+00
16 09  5 11  0  0  0.0 5.214568227530D-05-3.296918293927D-12 0.000000000000D+00
    7.500000000000D+01-6.906250000000D+00 4.466614623856D-09 1.798327258451D+00
   -1.862645149231D-09 5.334732704796D-03 8.476898074150D-06 5.153539571762D+03
    8.640000000000D+04 1.527369022369D-07-2.216935598026D+00 3.911554813385D-08
    9.681413270180D-01 2.170937500000D+02-3.718365752059D-01-7.801396388045D-09
    3.646580466142D-10 1.000000000000D+00 1.531000000000D+03 0.000000000000D+00
    2.000000000000D+00 0.000000000000D+00-9.778887033463D-09 7.500000000000D+01
    7.921800000000D+04 4.000000000000D+00
 2 09  5 11  0  0  0.0 1.540416851640D-04 4.547473508865D-13 0.000000000000D+00
    7.400000000000D+01 2.662500000000D+01 4.710910514046D-09-3.297654899306D-01
    1.279637217522D-06 9.048640145920D-03 9.890645742416D-06 5.153652839661D+03
    8.640000000000D+04 2.104789018631D-07-1.571241662465D-01-1.732259988785D-07
    9.418068793168D-01 1.826250000000D+02 2.807805699875D+00-8.029263022462D-09
   -4.982350392035D-10 1.000000000000D+00 1.531000000000D+03 0.000000000000D+00
    2.000000000000D+00 0.000000000000D+00-1.722946763039D-08 7.400000000000D+01
    7.921800000000D+04 4.000000000000D+00
 4 09  5 11  0  0  0.0-8.594430983067D-05-1.534772309242D-11 0.000000000000D+00
    6.300000000000D+01 2.831250000000D+01 4.619120976358D-09 2.537186624258D+00
    1.374632120132D-06 8.595156366937D-03 1.015886664391D-05 5.153740539551D+03
    8.640000000000D+04-5.960464477539D-08-1.387407763217D-01-5.587935447693D-08
    9.410292213243D-01 1.745625000000D+02 4.847098321672D-01-7.864970464732D-09
   -4.728768400756D-10 1.000000000000D+00 1.531000000000D+03 0.000000000000D+00
    2.000000000000D+00 0.000000000000D+00-6.053596735001D-09 6.300000000000D+01
    7.921800000000D+04 4.000000000000D+00
32 09  5 11  0  0  0.0 2.632457762957D-04-5.229594535194D-12 0.000000000000D+00
    9.000000000000D+01 1.221875000000D+02 4.309108063076D-09-1.294054906833D+00
    6.547197699547D-06 1.334056199994D-02 5.828216671944D-06 5.153577836990D+03
    8.640000000000D+04-2.514570951462D-07 9.879221811414D-01 8.381903171539D-08
    9.642600985607D-01 2.752187500000D+02-1.168345264944D+00-8.185698110040D-09
    4.075169747177D-10 1.000000000000D+00 1.531000000000D+03 0.000000000000D+00
    2.000000000000D+00 0.000000000000D+00-3.259629011154D-09 9.000000000000D+01
    7.921800000000D+04 4.000000000000D+00
13 09  5 11  0  0  0.0 2.967640757561D-04 9.094947017729D-13 0.000000000000D+00
    4.900000000000D+01-3.465625000000D+01 4.003023884870D-09 3.103185336925D-01
   -2.032145857811D-06 4.117720178328D-03 1.320615410805D-06 5.153711858749D+03
    8.640000000000D+04 1.303851604462D-08 2.007590948564D+00 3.352761268616D-08
    9.947259688208D-01 3.697187500000D+02 1.555981059897D+00-8.117480982809D-09
   -4.643050544549D-12 1.000000000000D+00 1.531000000000D+03 0.000000000000D+00
    2.000000000000D+00 0.000000000000D+00-1.117587089539D-08 4.900000000000D+01
    8.001600000000D+04 4.000000000000D+00
24 09  5 11  0  0  0.0 1.879003830254D-04 2.955857780762D-12 0.000000000000D+00
    9.100000000000D+01 4.075000000000D+01 4.256248718415D-09 1.902449501847D+00
    2.134591341019D-06 6.739859818481D-03 1.053884625435D-05 5.153680862427D+03
    8.640000000000D+04 7.450580596924D-09-9.365439598437D-02 1.173466444016D-07
    9.512179717609D-01 1.715312500000D+02-6.471991348989D-01-7.613174262124D-09
   -5.035924052165D-10 1.000000000000D+00 1.531000000000D+03 0.000000000000D+00
    2.000000000000D+00 0.000000000000D+00-1.396983861923D-09 9.100000000000D+01
    8.166600000000D+04 4.000000000000D+00
25 09  5 11  0  0  0.0 4.056813195348D-04 1.989519660128D-11 0.000000000000D+00
    9.000000000000D+01-1.212812500000D+02 4.206960951096D-09 2.398388990163D+00
   -6.282702088356D-06 1.146819186397D-02 7.294118404388D-06 5.153657325745D+03
    8.640000000000D+04 1.937150955200D-07 2.903391953792D+00-3.539025783539D-08
    9.697756274132D-01 2.430312500000D+02-1.208015953273D+00-7.692106121381D-09
   -1.700070814773D-10 1.000000000000D+00 1.531000000000D+03 0.000000000000D+00
    2.800000000000D+00 0.000000000000D+00-7.450580596924D-09 9.000000000000D+01
    8.316600000000D+04 4.000000000000D+00
 6 09  5 11  0  0  0.0 1.175147481263D-04 1.568878360558D-11 0.000000000000D+00
    1.080000000000D+02-1.071875000000D+01 5.486299954986D-09 1.793671040364D+00
   -7.804483175278D-07 5.964217241853D-03 4.565343260765D-06 5.153695545197D+03
    8.640000000000D+04 1.024454832077D-07-1.237133179837D+00-7.823109626770D-08
    9.333481480053D-01 2.707812500000D+02-1.378257981589D+00-8.359633926594D-09
   -2.446530479243D-10 1.000000000000D+00 1.531000000000D+03 0.000000000000D+00
    2.000000000000D+00 0.000000000000D+00-4.656612873077D-09 1.080000000000D+02
    8.445600000000D+04 4.000000000000D+00
21 09  5 11  0  0  0.0 1.467624679208D-05-2.046363078989D-12 0.000000000000D+00
    9.100000000000D+01 3.868750000000D+01 4.612334979408D-09-3.017305777068D+00
    1.855194568634D-06 1.518800726626D-02 1.083128154278D-05 5.153623956680D+03
    8.640000000000D+04-7.450580596924D-08-1.254821317945D-01-2.011656761169D-07
    9.345669679626D-01 1.565625000000D+02-2.609092263348D+00-7.709249692622D-09
   -4.535903224290D-10 1.000000000000D+00 1.531000000000D+03 0.000000000000D+00
    2.000000000000D+00 0.000000000000D+00-1.210719347000D-08 9.100000000000D+01
    8.463600000000D+04 4.000000000000D+00
10 09  5 11  0  0  0.0-1.581478863955D-05-5.684341886081D-13 0.000000000000D+00
    2.100000000000D+01 1.219062500000D+02 4.367681931484D-09 5.824803763828D-01
    6.411224603653D-06 8.615864091553D-03 5.543231964111D-06 5.153601398468D+03
    8.640000000000D+04-7.823109626770D-08 9.268353171769D-01 1.862645149231D-07
    9.586236273448D-01 2.725000000000D+02 6.237629356471D-01-8.118552456011D-09
    2.357241045694D-10 1.000000000000D+00 1.531000000000D+03 0.000000000000D+00
    2.000000000000D+00 0.000000000000D+00-2.793967723846D-09 2.100000000000D+01
    8.532600000000D+04 4.000000000000D+00
 7 09  5 11  0  0  0.0 1.907208934426D-05-5.684341886081D-13 0.000000000000D+00
    5.000000000000D+01-1.086875000000D+02 4.255534402946D-09-2.050319050830D+00
   -5.690380930901D-06 2.518548280932D-03 8.482486009598D-06 5.153676948547D+03
    8.640000000000D+04-5.960464477539D-08 2.997865245966D+00-7.264316082001D-08
    9.675374271203D-01 2.224687500000D+02 2.882752221927D+00-7.836755003730D-09
   -3.178703834345D-11 1.000000000000D+00 1.531000000000D+03 0.000000000000D+00
    2.000000000000D+00 0.000000000000D+00-1.071020960808D-08 5.000000000000D+01
    8.607600000000D+04 4.000000000000D+00
